GLOBALSTAR M024         
1 25883U 99043A   25028.90776657 -.00000084  00000+0 -68201-3 0  9998
2 25883  52.0058 334.8873 0001060 226.4881 206.8109 11.10166305 99392
GLOBALSTAR M027         
1 25884U 99043B   25028.74483443 -.00000011  00000+0  19915-2 0  9995
2 25884  52.0227  49.2829 0021605 126.6796 233.5986 11.04370853125839
GLOBALSTAR M054         
1 25885U 99043C   25028.78076782 -.00000070  00000+0  22533-4 0  9991
2 25885  52.0111 199.8991 0004679 304.1843  73.4544 11.39216284103160
GLOBALSTAR M053         
1 25886U 99043D   25027.49143661 -.00000094  00000+0 -74499-3 0  9994
2 25886  51.9971 142.2752 0003741 185.1887 254.8860 11.27662592103579
GLOBALSTAR M058         
1 25907U 99049A   25028.49584125  .00000022  00000+0  14341-2 0  9997
2 25907  51.9936 122.1870 0001652  35.2696 324.8248 11.93195420136077
GLOBALSTAR M050         
1 25908U 99049B   25027.75912021 -.00000125  00000+0 -41160-3 0  9992
2 25908  51.9978 142.3202 0010133 112.5366  53.8130 12.07448649131225
GLOBALSTAR M033         
1 25909U 99049C   25028.69413134 -.00000168  00000+0 -73129-3 0  9995
2 25909  51.9936  21.2201 0013071 336.6762  23.3491 12.20290969518717
GLOBALSTAR M055         
1 25910U 99049D   25028.74488425 -.00000072  00000+0  18902-3 0  9999
2 25910  52.0037  38.6140 0007081 200.4732 159.5837 12.29419740151130
